     2.100          NAVIGATION                              RINEX VERSION / TYPE
fic2rin                                 07/14/2014 00:26:16 PGM / RUN BY / DATE
                                                            END OF HEADER
15 14  7 14  0  0  0.0 -.190823338926D-03 -.216004991671D-11  .000000000000D+00
     .390000000000D+02 -.490000000000D+02  .517342977983D-08 -.206420196200D+01
    -.252202153206D-05  .634338892996D-02  .824593007565D-05  .515372004128D+04
     .864000000000D+05 -.353902578354D-07 -.520199967297D+00 -.800937414169D-07
     .936305998663D+00  .208406250000D+03  .271545987826D+00 -.832034657583D-08
    -.623954561641D-09  .100000000000D+01  .180100000000D+04  .000000000000D+00
     .240000000000D+01  .000000000000D+00 -.102445483208D-07  .390000000000D+02
     .792060000000D+05  .400000000000D+01
16 14  7 14  0  0  0.0 -.207728240639D-03  .216004991671D-11  .000000000000D+00
     .490000000000D+02  .443437500000D+02  .428696428356D-08 -.433296616406D+00
     .251084566116D-05  .769162084907D-02  .726431608200D-06  .515362001610D+04
     .864000000000D+05  .115483999252D-06  .167150740511D+01 -.502914190292D-07
     .988205301140D+00  .375843750000D+03  .233822762377D+00 -.847213861287D-08
     .313584490624D-09  .100000000000D+01  .180100000000D+04  .000000000000D+00
     .240000000000D+01  .000000000000D+00 -.102445483208D-07  .490000000000D+02
     .792060000000D+05  .400000000000D+01
17 14  7 14  0  0  0.0 -.108697917312D-03 -.295585778076D-11  .000000000000D+00
     .620000000000D+02 -.144875000000D+03  .448232956416D-08 -.134403317258D+01
    -.732392072678D-05  .934962497558D-02  .632926821709D-05  .515362344551D+04
     .864000000000D+05  .232830643654D-06  .270303859049D+01  .158324837685D-06
     .969466597672D+00  .259562500000D+03 -.209961631358D+01 -.816641159239D-08
    -.315013121561D-09  .100000000000D+01  .180100000000D+04  .000000000000D+00
     .240000000000D+01  .000000000000D+00 -.102445483208D-07  .620000000000D+02
     .792060000000D+05  .400000000000D+01
18 14  7 14  0  0  0.0  .331406015903D-03  .238742359215D-11  .000000000000D+00
     .210000000000D+02  .390000000000D+02  .604882338634D-08  .207311178703D+00
     .218488276005D-05  .154664857546D-01  .463426113129D-05  .515369985199D+04
     .864000000000D+05 -.143423676491D-06 -.153981288636D+01  .160187482834D-06
     .925186036501D+00  .273125000000D+03 -.202384658851D+01 -.912788021285D-08
     .139648674071D-09  .100000000000D+01  .180100000000D+04  .000000000000D+00
     .240000000000D+01  .000000000000D+00 -.111758708954D-07  .210000000000D+02
     .792060000000D+05  .400000000000D+01
19 14  7 14  0  0  0.0 -.467993784696D-03 -.204636307899D-11  .000000000000D+00
     .104000000000D+03 -.156687500000D+03  .440518349357D-08 -.216680333235D+01
    -.839307904243D-05  .105085384566D-01  .805035233498D-05  .515364228249D+04
     .864000000000D+05  .122934579849D-06  .275368726917D+01 -.137835741043D-06
     .966609596198D+00  .224968750000D+03  .465840064406D+00 -.811426656320D-08
    -.231795369493D-09  .100000000000D+01  .180100000000D+04  .000000000000D+00
     .240000000000D+01  .000000000000D+00 -.149011611938D-07  .104000000000D+03
     .792060000000D+05  .400000000000D+01
20 14  7 14  0  0  0.0  .210336409509D-03  .420641299570D-11  .000000000000D+00
     .450000000000D+02  .387500000000D+02  .594060459288D-08  .713840821696D+00
     .202469527721D-05  .577246432658D-02  .525079667568D-05  .515375454712D+04
     .864000000000D+05 -.502914190292D-07 -.159286050346D+01  .298023223877D-07
     .926227155799D+00  .259687500000D+03  .133020432062D+01 -.888251284946D-08
     .312155859687D-09  .100000000000D+01  .180100000000D+04  .000000000000D+00
     .240000000000D+01  .000000000000D+00 -.838190317154D-08  .450000000000D+02
     .792060000000D+05  .400000000000D+01
21 14  7 14  0  0  0.0 -.372470822185D-03 -.216004991671D-11  .000000000000D+00
     .820000000000D+02 -.226562500000D+02  .517200114889D-08  .115545681915D+01
    -.108592212200D-05  .215543418890D-01  .131726264954D-04  .515373662949D+04
     .864000000000D+05 -.450760126114D-06 -.258487152307D+01  .167638063431D-07
     .932776117778D+00  .120718750000D+03 -.201009598658D+01 -.851821196058D-08
     .313227332890D-09  .100000000000D+01  .180100000000D+04  .000000000000D+00
     .240000000000D+01  .000000000000D+00 -.111758708954D-07  .820000000000D+02
     .792060000000D+05  .400000000000D+01
22 14  7 14  0  0  0.0  .249988865107D-03  .329691829393D-11  .000000000000D+00
     .820000000000D+02  .333750000000D+02  .609561104952D-08 -.352547764801D+00
     .175833702087D-05  .736940419301D-02  .420212745667D-05  .515371479607D+04
     .864000000000D+05 -.409781932831D-07 -.153801698911D+01  .484287738800D-07
     .922968134196D+00  .276500000000D+03 -.205097335411D+01 -.902323299673D-08
     .174650132022D-09  .100000000000D+01  .180100000000D+04  .000000000000D+00
     .340000000000D+01  .000000000000D+00 -.172294676304D-07  .820000000000D+02
     .792060000000D+05  .400000000000D+01
23 14  7 14  0  0  0.0 -.363220460713D-04 -.295585778076D-11  .000000000000D+00
     .370000000000D+02 -.390000000000D+02  .478484216502D-08 -.254397802980D+01
    -.215694308281D-05  .960253854282D-02  .936165452003D-05  .515376027870D+04
     .864000000000D+05  .000000000000D+00 -.472830660872D+00 -.158324837685D-06
     .951432207336D+00  .192875000000D+03 -.275857524859D+01 -.805569269479D-08
    -.743245244862D-09  .100000000000D+01  .180100000000D+04  .000000000000D+00
     .240000000000D+01  .000000000000D+00 -.200234353542D-07  .370000000000D+02
     .792060000000D+05  .400000000000D+01
25 14  7 14  0  0  0.0  .247717835009D-04 -.227373675443D-12  .000000000000D+00
     .400000000000D+02  .621562500000D+02  .445768568050D-08  .922612057010D+00
     .303238630295D-05  .368863646872D-02  .155717134476D-05  .515358412933D+04
     .864000000000D+05  .149011611938D-07  .160993122138D+01  .633299350739D-07
     .976300533167D+00  .357093750000D+03  .723223175114D+00 -.844892336014D-08
     .258225041824D-09  .100000000000D+01  .180100000000D+04  .000000000000D+00
     .240000000000D+01  .000000000000D+00  .512227416039D-08  .400000000000D+02
     .792060000000D+05  .400000000000D+01
26 14  7 14  0  0  0.0  .154091976583D-04 -.125055521494D-10  .000000000000D+00
     .260000000000D+02 -.397500000000D+02  .404731144391D-08 -.261330510169D+01
    -.195577740669D-05  .212350607617D-01  .970438122749D-05  .515369096947D+04
     .864000000000D+05  .201165676117D-06 -.383416417370D+00 -.707805156708D-07
     .974674767436D+00  .195937500000D+03  .128790327048D+01 -.743209529089D-08
    -.645026867958D-09  .100000000000D+01  .180100000000D+04  .000000000000D+00
     .240000000000D+01  .000000000000D+00 -.605359673500D-08  .260000000000D+02
     .792060000000D+05  .400000000000D+01
27 14  7 14  0  0  0.0 -.243354588747D-05  .295585778076D-11  .000000000000D+00
     .800000000000D+02 -.148187500000D+03  .457340478638D-08 -.143636124315D+01
    -.781007111073D-05  .138000957668D-02  .634416937828D-05  .515367980194D+04
     .864000000000D+05  .204890966415D-07  .265721375251D+01  .409781932831D-07
     .964204437454D+00  .256781250000D+03  .271433444075D+00 -.828677374882D-08
    -.317156067966D-09  .100000000000D+01  .180100000000D+04  .000000000000D+00
     .240000000000D+01  .000000000000D+00  .186264514923D-08  .800000000000D+02
     .792060000000D+05  .400000000000D+01
28 14  7 14  0  0  0.0  .369400717318D-03  .284217094304D-11  .000000000000D+00
     .101000000000D+03  .487500000000D+02  .443339895458D-08 -.535501968984D+00
     .270083546638D-05  .191674965899D-01  .194832682610D-05  .515367072487D+04
     .864000000000D+05 -.242143869400D-06  .167723937269D+01  .150874257088D-06
     .986742372821D+00  .362000000000D+03 -.171182291408D+01 -.870786271743D-08
     .399302346831D-09  .100000000000D+01  .180100000000D+04  .000000000000D+00
     .240000000000D+01  .000000000000D+00 -.107102096081D-07  .101000000000D+03
     .792060000000D+05  .400000000000D+01
29 14  7 14  0  0  0.0  .546482391655D-03  .261479726760D-11  .000000000000D+00
     .103000000000D+03 -.131843750000D+03  .440304054717D-08  .131683203662D+01
    -.682659447193D-05  .137457158417D-02  .687316060066D-05  .515368131065D+04
     .864000000000D+05  .000000000000D+00  .271213624396D+01 -.167638063431D-07
     .970222256303D+00  .256375000000D+03 -.811016922316D+00 -.809712299196D-08
    -.276440086268D-09  .100000000000D+01  .180100000000D+04  .000000000000D+00
     .340000000000D+01  .000000000000D+00 -.977888703346D-08  .103000000000D+03
     .792060000000D+05  .400000000000D+01
30 14  7 14  0  0  0.0 -.320859253407D-04 -.636646291241D-11  .000000000000D+00
     .980000000000D+02  .117562500000D+03  .408695595241D-08  .225185964384D+01
     .618211925030D-05  .894341850653D-03  .122077763081D-04  .515369406319D+04
     .864000000000D+05 -.130385160446D-07  .642803335248D+00 -.409781932831D-07
     .958915121087D+00  .142687500000D+03  .287794493707D+01 -.787782814316D-08
     .125005206969D-09  .100000000000D+01  .180100000000D+04  .000000000000D+00
     .240000000000D+01  .000000000000D+00  .325962901115D-08  .980000000000D+02
     .792060000000D+05  .400000000000D+01
31 14  7 14  0  0  0.0  .333523843437D-03 -.227373675443D-12  .000000000000D+00
     .340000000000D+02  .117125000000D+03  .364443751974D-08  .207664752397D+01
     .622123479843D-05  .796327833086D-02  .114832073450D-04  .515358911324D+04
     .864000000000D+05 -.111758708954D-07  .595364812317D+00  .949949026108D-07
     .978284198881D+00  .165781250000D+03 -.633954630938D+00 -.752102756670D-08
     .425017703693D-10  .100000000000D+01  .180100000000D+04  .000000000000D+00
     .240000000000D+01  .000000000000D+00 -.130385160446D-07  .340000000000D+02
     .792060000000D+05  .400000000000D+01
